ASIASAT 4               
1 27718U 03014A   17345.88521576 -.00000350  00000-0  00000-0 0  9994
2 27718   0.1055  99.8703 0010499  93.8881 322.1444  0.99985896 53746
